{
  "type": "FeatureCollection",
  "features": [
    {
      "type": "Feature",
      "properties": {
        "norad_id": 30693,
        "name": "FENGYUN 1C DEB",
        "group": "fengyun-1c-debris",
        "lat": 2.44280140237643,
        "lon": -21.070823189679672,
        "alt_km": 867.7882685248196,
        "timestamp": "2025-12-20T09:36:01.923538+00:00",
        "meta_object_name": "FENGYUN 1C DEB",
        "meta_object_id": "1999-025ARB",
        "meta_epoch": "2025-12-19T18:17:48.382656",
        "meta_mean_motion": 14.13294641,
        "meta_eccentricity": 0.0029624,
        "meta_inclination": 98.6863,
        "meta_ra_of_asc_node": 338.6839,
        "meta_arg_of_pericenter": 147.4592,
        "meta_mean_anomaly": 212.8415,
        "meta_ephemeris_type": 0,
        "meta_classification_type": "U",
        "meta_norad_cat_id": 30693,
        "meta_element_set_no": 999,
        "meta_rev_at_epoch": 97034,
        "meta_bstar": 0.00023552165,
        "meta_mean_motion_dot": 4.01e-06,
        "meta_mean_motion_ddot": 0,
        "tle_line1": "1 30693U 99025ARB 25353.76236554  .00000401  00000+0  23552-3 0  9996",
        "tle_line2": "2 30693  98.6863 338.6839 0029624 147.4592 212.8415 14.13294641970349"
      },
      "geometry": {
        "type": "Point",
        "coordinates": [
          -21.070823189679672,
          2.44280140237643
        ]
      }
    },
    {
      "type": "Feature",
      "properties": {
        "norad_id": 30694,
        "name": "FENGYUN 1C DEB",
        "group": "fengyun-1c-debris",
        "lat": 64.01255591388359,
        "lon": 160.73286014050416,
        "alt_km": 684.5511476351039,
        "timestamp": "2025-12-20T09:36:01.923549+00:00",
        "meta_object_name": "FENGYUN 1C DEB",
        "meta_object_id": "1999-025ARC",
        "meta_epoch": "2025-12-19T10:27:50.137344",
        "meta_mean_motion": 14.86655062,
        "meta_eccentricity": 0.0129765,
        "meta_inclination": 99.0473,
        "meta_ra_of_asc_node": 320.557,
        "meta_arg_of_pericenter": 273.2694,
        "meta_mean_anomaly": 85.3679,
        "meta_ephemeris_type": 0,
        "meta_classification_type": "U",
        "meta_norad_cat_id": 30694,
        "meta_element_set_no": 999,
        "meta_rev_at_epoch": 195,
        "meta_bstar": 0.00094256,
        "meta_mean_motion_dot": 9.692e-05,
        "meta_mean_motion_ddot": 0,
        "tle_line1": "1 30694U 99025ARC 25353.43599696  .00009692  00000+0  94256-3 0  9990",
        "tle_line2": "2 30694  99.0473 320.5570 0129765 273.2694  85.3679 14.86655062  1957"
      },
      "geometry": {
        "type": "Point",
        "coordinates": [
          160.73286014050416,
          64.01255591388359
        ]
      }
    },
    {
      "type": "Feature",
      "properties": {
        "norad_id": 30696,
        "name": "FENGYUN 1C DEB",
        "group": "fengyun-1c-debris",
        "lat": -17.144206570989464,
        "lon": 45.929219975477835,
        "alt_km": 779.1618487602518,
        "timestamp": "2025-12-20T09:36:01.923559+00:00",
        "meta_object_name": "FENGYUN 1C DEB",
        "meta_object_id": "1999-025ARE",
        "meta_epoch": "2025-12-19T20:38:16.840032",
        "meta_mean_motion": 14.44799438,
        "meta_eccentricity": 0.00897578,
        "meta_inclination": 98.3881,
        "meta_ra_of_asc_node": 42.7872,
        "meta_arg_of_pericenter": 104.4732,
        "meta_mean_anomaly": 311.5975,
        "meta_ephemeris_type": 0,
        "meta_classification_type": "U",
        "meta_norad_cat_id": 30696,
        "meta_element_set_no": 999,
        "meta_rev_at_epoch": 98407,
        "meta_bstar": 0.00052757935,
        "meta_mean_motion_dot": 1.88e-05,
        "meta_mean_motion_ddot": 0,
        "tle_line1": "1 30696U 99025ARE 25353.85991713  .00001880  00000+0  52758-3 0  9996",
        "tle_line2": "2 30696  98.3881  42.7872 0089757 104.4732 311.5975 14.44799438984072"
      },
      "geometry": {
        "type": "Point",
        "coordinates": [
          45.929219975477835,
          -17.144206570989464
        ]
      }
    },
    {
      "type": "Feature",
      "properties": {
        "norad_id": 30697,
        "name": "FENGYUN 1C DEB",
        "group": "fengyun-1c-debris",
        "lat": -26.403830607567723,
        "lon": 55.67474823685073,
        "alt_km": 915.4606173864495,
        "timestamp": "2025-12-20T09:36:01.923569+00:00",
        "meta_object_name": "FENGYUN 1C DEB",
        "meta_object_id": "1999-025ARF",
        "meta_epoch": "2025-12-19T15:45:06.809184",
        "meta_mean_motion": 14.13557266,
        "meta_eccentricity": 0.0088164,
        "meta_inclination": 98.9062,
        "meta_ra_of_asc_node": 50.4692,
        "meta_arg_of_pericenter": 165.9942,
        "meta_mean_anomaly": 344.7687,
        "meta_ephemeris_type": 0,
        "meta_classification_type": "U",
        "meta_norad_cat_id": 30697,
        "meta_element_set_no": 999,
        "meta_rev_at_epoch": 96358,
        "meta_bstar": 0.0010013,
        "meta_mean_motion_dot": 1.914e-05,
        "meta_mean_motion_ddot": 0,
        "tle_line1": "1 30697U 99025ARF 25353.65632881  .00001914  00000+0  10013-2 0  9998",
        "tle_line2": "2 30697  98.9062  50.4692 0088164 165.9942 344.7687 14.13557266963580"
      },
      "geometry": {
        "type": "Point",
        "coordinates": [
          55.67474823685073,
          -26.403830607567723
        ]
      }
    },
    {
      "type": "Feature",
      "properties": {
        "norad_id": 30699,
        "name": "FENGYUN 1C DEB",
        "group": "fengyun-1c-debris",
        "lat": -55.09729783739545,
        "lon": 128.23866565548852,
        "alt_km": 741.0659491724518,
        "timestamp": "2025-12-20T09:36:01.923579+00:00",
        "meta_object_name": "FENGYUN 1C DEB",
        "meta_object_id": "1999-025ARH",
        "meta_epoch": "2025-12-19T13:56:45.140928",
        "meta_mean_motion": 14.47033924,
        "meta_eccentricity": 0.0004734,
        "meta_inclination": 99.3124,
        "meta_ra_of_asc_node": 113.7361,
        "meta_arg_of_pericenter": 237.9991,
        "meta_mean_anomaly": 122.0739,
        "meta_ephemeris_type": 0,
        "meta_classification_type": "U",
        "meta_norad_cat_id": 30699,
        "meta_element_set_no": 999,
        "meta_rev_at_epoch": 97712,
        "meta_bstar": 0.0014611,
        "meta_mean_motion_dot": 5.27e-05,
        "meta_mean_motion_ddot": 0,
        "tle_line1": "1 30699U 99025ARH 25353.58107802  .00005270  00000+0  14611-2 0  9999",
        "tle_line2": "2 30699  99.3124 113.7361 0004734 237.9991 122.0739 14.47033924977124"
      },
      "geometry": {
        "type": "Point",
        "coordinates": [
          128.23866565548852,
          -55.09729783739545
        ]
      }
    },
    {
      "type": "Feature",
      "properties": {
        "norad_id": 30700,
        "name": "FENGYUN 1C DEB",
        "group": "fengyun-1c-debris",
        "lat": 61.69679633912707,
        "lon": -141.30079626832338,
        "alt_km": 743.8479115884666,
        "timestamp": "2025-12-20T09:36:01.923590+00:00",
        "meta_object_name": "FENGYUN 1C DEB",
        "meta_object_id": "1999-025ARJ",
        "meta_epoch": "2025-12-19T19:33:49.282272",
        "meta_mean_motion": 14.23799868,
        "meta_eccentricity": 0.00873346,
        "meta_inclination": 98.5408,
        "meta_ra_of_asc_node": 21.9274,
        "meta_arg_of_pericenter": 122.8931,
        "meta_mean_anomaly": 238.069,
        "meta_ephemeris_type": 0,
        "meta_classification_type": "U",
        "meta_norad_cat_id": 30700,
        "meta_element_set_no": 999,
        "meta_rev_at_epoch": 97670,
        "meta_bstar": 0.00013616392,
        "meta_mean_motion_dot": 2.82e-06,
        "meta_mean_motion_ddot": 0,
        "tle_line1": "1 30700U 99025ARJ 25353.81515373  .00000282  00000+0  13616-3 0  9997",
        "tle_line2": "2 30700  98.5408  21.9274 0087334 122.8931 238.0690 14.23799868976706"
      },
      "geometry": {
        "type": "Point",
        "coordinates": [
          -141.30079626832338,
          61.69679633912707
        ]
      }
    },
    {
      "type": "Feature",
      "properties": {
        "norad_id": 30701,
        "name": "FENGYUN 1C DEB",
        "group": "fengyun-1c-debris",
        "lat": -40.30986967188588,
        "lon": -151.969949972707,
        "alt_km": 871.941049424735,
        "timestamp": "2025-12-20T09:36:01.923600+00:00",
        "meta_object_name": "FENGYUN 1C DEB",
        "meta_object_id": "1999-025ARK",
        "meta_epoch": "2025-12-19T19:15:43.548768",
        "meta_mean_motion": 14.13935094,
        "meta_eccentricity": 0.00357439,
        "meta_inclination": 98.7173,
        "meta_ra_of_asc_node": 34.9264,
        "meta_arg_of_pericenter": 83.2227,
        "meta_mean_anomaly": 337.9565,
        "meta_ephemeris_type": 0,
        "meta_classification_type": "U",
        "meta_norad_cat_id": 30701,
        "meta_element_set_no": 999,
        "meta_rev_at_epoch": 97219,
        "meta_bstar": 1.9339819e-05,
        "meta_mean_motion_dot": -6e-08,
        "meta_mean_motion_ddot": 0,
        "tle_line1": "1 30701U 99025ARK 25353.80258737 -.00000006  00000+0  19340-4 0  9991",
        "tle_line2": "2 30701  98.7173  34.9264 0035743  83.2227 337.9565 14.13935094972197"
      },
      "geometry": {
        "type": "Point",
        "coordinates": [
          -151.969949972707,
          -40.30986967188588
        ]
      }
    }
  ]
}